STARLINK-30529          
1 58047U 23156V   26068.59312220 -.00001407  00000+0 -35399-4 0  9993
2 58047  53.1595 168.9287 0001070  83.7838 276.3285 15.30190563134969
YAM-7                   
1 60504U 24149AN  26068.71799904  .00009009  00000+0  30984-3 0  9997
2 60504  97.3828 149.4631 0001973 296.5121  63.5918 15.30304554 86835
